CCSDS_OMM_VERS = 2.0
CREATION_DATE  = 
ORIGINATOR     = 

OBJECT_NAME    = STARLINK-36674
OBJECT_ID      = 2026-022P
CENTER_NAME    = EARTH
REF_FRAME      = TEME
TIME_SYSTEM    = UTC
MEAN_ELEMENT_THEORY = SGP/SGP4

EPOCH          = 2026-02-26T12:42:56.913696
MEAN_MOTION    = 15.75323241
ECCENTRICITY   = .0001722
INCLINATION    = 97.2845
RA_OF_ASC_NODE = 90.9797
ARG_OF_PERICENTER = 33.0354
MEAN_ANOMALY   = 327.1018

EPHEMERIS_TYPE = 0
CLASSIFICATION_TYPE = U
NORAD_CAT_ID   = 67661
ELEMENT_SET_NO = 999
REV_AT_EPOCH   = 379
BSTAR          = .20846E-2
MEAN_MOTION_DOT = .324785E-2
MEAN_MOTION_DDOT = 0

CCSDS_OMM_VERS = 2.0
CREATION_DATE  = 
ORIGINATOR     = 

OBJECT_NAME    = STARLINK-36700
OBJECT_ID      = 2026-022Q
CENTER_NAME    = EARTH
REF_FRAME      = TEME
TIME_SYSTEM    = UTC
MEAN_ELEMENT_THEORY = SGP/SGP4

EPOCH          = 2026-02-26T12:39:52.909344
MEAN_MOTION    = 15.75336516
ECCENTRICITY   = .0002425
INCLINATION    = 97.2846
RA_OF_ASC_NODE = 90.9822
ARG_OF_PERICENTER = 285.1355
MEAN_ANOMALY   = 74.9642

EPHEMERIS_TYPE = 0
CLASSIFICATION_TYPE = U
NORAD_CAT_ID   = 67662
ELEMENT_SET_NO = 999
REV_AT_EPOCH   = 379
BSTAR          = .22728E-2
MEAN_MOTION_DOT = .355625E-2
MEAN_MOTION_DDOT = 0

CCSDS_OMM_VERS = 2.0
CREATION_DATE  = 
ORIGINATOR     = 

OBJECT_NAME    = STARLINK-36675
OBJECT_ID      = 2026-022R
CENTER_NAME    = EARTH
REF_FRAME      = TEME
TIME_SYSTEM    = UTC
MEAN_ELEMENT_THEORY = SGP/SGP4

EPOCH          = 2026-02-26T12:41:53.015712
MEAN_MOTION    = 15.75417799
ECCENTRICITY   = .0001365
INCLINATION    = 97.2846
RA_OF_ASC_NODE = 90.9805
ARG_OF_PERICENTER = 289.4144
MEAN_ANOMALY   = 70.6974

EPHEMERIS_TYPE = 0
CLASSIFICATION_TYPE = U
NORAD_CAT_ID   = 67663
ELEMENT_SET_NO = 999
REV_AT_EPOCH   = 379
BSTAR          = .27148E-2
MEAN_MOTION_DOT = .430094E-2
MEAN_MOTION_DDOT = 0

CCSDS_OMM_VERS = 2.0
CREATION_DATE  = 
ORIGINATOR     = 

OBJECT_NAME    = STARLINK-36404
OBJECT_ID      = 2026-022S
CENTER_NAME    = EARTH
REF_FRAME      = TEME
TIME_SYSTEM    = UTC
MEAN_ELEMENT_THEORY = SGP/SGP4

EPOCH          = 2026-02-26T15:40:18.628032
MEAN_MOTION    = 15.75211553
ECCENTRICITY   = .00006948
INCLINATION    = 97.2851
RA_OF_ASC_NODE = 91.1172
ARG_OF_PERICENTER = 70.2916
MEAN_ANOMALY   = 289.8424

EPHEMERIS_TYPE = 0
CLASSIFICATION_TYPE = U
NORAD_CAT_ID   = 67664
ELEMENT_SET_NO = 999
REV_AT_EPOCH   = 381
BSTAR          = .25452747E-2
MEAN_MOTION_DOT = .398164E-2
MEAN_MOTION_DDOT = 0

CCSDS_OMM_VERS = 2.0
CREATION_DATE  = 
ORIGINATOR     = 

OBJECT_NAME    = STARLINK-36399
OBJECT_ID      = 2026-022T
CENTER_NAME    = EARTH
REF_FRAME      = TEME
TIME_SYSTEM    = UTC
MEAN_ELEMENT_THEORY = SGP/SGP4

EPOCH          = 2026-02-26T12:36:19.530720
MEAN_MOTION    = 15.75346583
ECCENTRICITY   = .0001411
INCLINATION    = 97.2853
RA_OF_ASC_NODE = 90.9851
ARG_OF_PERICENTER = 281.2205
MEAN_ANOMALY   = 78.8901

EPHEMERIS_TYPE = 0
CLASSIFICATION_TYPE = U
NORAD_CAT_ID   = 67665
ELEMENT_SET_NO = 999
REV_AT_EPOCH   = 379
BSTAR          = .25504E-2
MEAN_MOTION_DOT = .40143E-2
MEAN_MOTION_DDOT = 0

CCSDS_OMM_VERS = 2.0
CREATION_DATE  = 
ORIGINATOR     = 

OBJECT_NAME    = STARLINK-36365
OBJECT_ID      = 2026-022U
CENTER_NAME    = EARTH
REF_FRAME      = TEME
TIME_SYSTEM    = UTC
MEAN_ELEMENT_THEORY = SGP/SGP4

EPOCH          = 2026-02-26T12:34:18.464448
MEAN_MOTION    = 15.75226508
ECCENTRICITY   = .000172
INCLINATION    = 97.2852
RA_OF_ASC_NODE = 90.9881
ARG_OF_PERICENTER = 79.4598
MEAN_ANOMALY   = 280.6861

EPHEMERIS_TYPE = 0
CLASSIFICATION_TYPE = U
NORAD_CAT_ID   = 67666
ELEMENT_SET_NO = 999
REV_AT_EPOCH   = 379
BSTAR          = .12139E-2
MEAN_MOTION_DOT = .185212E-2
MEAN_MOTION_DDOT = 0

CCSDS_OMM_VERS = 2.0
CREATION_DATE  = 
ORIGINATOR     = 

OBJECT_NAME    = STARLINK-36622
OBJECT_ID      = 2026-022V
CENTER_NAME    = EARTH
REF_FRAME      = TEME
TIME_SYSTEM    = UTC
MEAN_ELEMENT_THEORY = SGP/SGP4

EPOCH          = 2026-02-26T20:09:09.813024
MEAN_MOTION    = 15.75368245
ECCENTRICITY   = .00012481
INCLINATION    = 97.2860
RA_OF_ASC_NODE = 91.3228
ARG_OF_PERICENTER = 109.1667
MEAN_ANOMALY   = 250.9733

EPHEMERIS_TYPE = 0
CLASSIFICATION_TYPE = U
NORAD_CAT_ID   = 67667
ELEMENT_SET_NO = 999
REV_AT_EPOCH   = 384
BSTAR          = .16536166E-2
MEAN_MOTION_DOT = .256023E-2
MEAN_MOTION_DDOT = 0

CCSDS_OMM_VERS = 2.0
CREATION_DATE  = 
ORIGINATOR     = 

OBJECT_NAME    = STARLINK-36625
OBJECT_ID      = 2026-022W
CENTER_NAME    = EARTH
REF_FRAME      = TEME
TIME_SYSTEM    = UTC
MEAN_ELEMENT_THEORY = SGP/SGP4

EPOCH          = 2026-02-26T12:29:44.167776
MEAN_MOTION    = 15.75318301
ECCENTRICITY   = .000202
INCLINATION    = 97.2842
RA_OF_ASC_NODE = 90.9903
ARG_OF_PERICENTER = 22.6451
MEAN_ANOMALY   = 337.4903

EPHEMERIS_TYPE = 0
CLASSIFICATION_TYPE = U
NORAD_CAT_ID   = 67668
ELEMENT_SET_NO = 999
REV_AT_EPOCH   = 379
BSTAR          = .20609E-2
MEAN_MOTION_DOT = .320882E-2
MEAN_MOTION_DDOT = 0

CCSDS_OMM_VERS = 2.0
CREATION_DATE  = 
ORIGINATOR     = 

OBJECT_NAME    = STARLINK-36639
OBJECT_ID      = 2026-022X
CENTER_NAME    = EARTH
REF_FRAME      = TEME
TIME_SYSTEM    = UTC
MEAN_ELEMENT_THEORY = SGP/SGP4

EPOCH          = 2026-02-26T12:27:11.841120
MEAN_MOTION    = 15.75375135
ECCENTRICITY   = .0001621
INCLINATION    = 97.2851
RA_OF_ASC_NODE = 90.9940
ARG_OF_PERICENTER = 51.7018
MEAN_ANOMALY   = 308.4393

EPHEMERIS_TYPE = 0
CLASSIFICATION_TYPE = U
NORAD_CAT_ID   = 67669
ELEMENT_SET_NO = 999
REV_AT_EPOCH   = 379
BSTAR          = .30451E-2
MEAN_MOTION_DOT = .484678E-2
MEAN_MOTION_DDOT = 0

CCSDS_OMM_VERS = 2.0
CREATION_DATE  = 
ORIGINATOR     = 

OBJECT_NAME    = STARLINK-36596
OBJECT_ID      = 2026-022Y
CENTER_NAME    = EARTH
REF_FRAME      = TEME
TIME_SYSTEM    = UTC
MEAN_ELEMENT_THEORY = SGP/SGP4

EPOCH          = 2026-02-26T16:59:05.629920
MEAN_MOTION    = 15.75340273
ECCENTRICITY   = .00013502
INCLINATION    = 97.2863
RA_OF_ASC_NODE = 91.1954
ARG_OF_PERICENTER = 43.0351
MEAN_ANOMALY   = 317.1019

EPHEMERIS_TYPE = 0
CLASSIFICATION_TYPE = U
NORAD_CAT_ID   = 67670
ELEMENT_SET_NO = 999
REV_AT_EPOCH   = 382
BSTAR          = .16580638E-2
MEAN_MOTION_DOT = .256413E-2
MEAN_MOTION_DDOT = 0

CCSDS_OMM_VERS = 2.0
CREATION_DATE  = 
ORIGINATOR     = 

OBJECT_NAME    = STARLINK-36297
OBJECT_ID      = 2026-022Z
CENTER_NAME    = EARTH
REF_FRAME      = TEME
TIME_SYSTEM    = UTC
MEAN_ELEMENT_THEORY = SGP/SGP4

EPOCH          = 2026-02-26T01:41:14.828064
MEAN_MOTION    = 15.75167512
ECCENTRICITY   = .00014378
INCLINATION    = 97.2860
RA_OF_ASC_NODE = 90.5319
ARG_OF_PERICENTER = 73.1183
MEAN_ANOMALY   = 287.0240

EPHEMERIS_TYPE = 0
CLASSIFICATION_TYPE = U
NORAD_CAT_ID   = 67671
ELEMENT_SET_NO = 999
REV_AT_EPOCH   = 372
BSTAR          = .13530525E-2
MEAN_MOTION_DOT = .20644E-2
MEAN_MOTION_DDOT = 0

CCSDS_OMM_VERS = 2.0
CREATION_DATE  = 
ORIGINATOR     = 

OBJECT_NAME    = STARLINK-36616
OBJECT_ID      = 2026-022AA
CENTER_NAME    = EARTH
REF_FRAME      = TEME
TIME_SYSTEM    = UTC
MEAN_ELEMENT_THEORY = SGP/SGP4

EPOCH          = 2026-02-26T16:58:04.292832
MEAN_MOTION    = 15.75239406
ECCENTRICITY   = .00009963
INCLINATION    = 97.2859
RA_OF_ASC_NODE = 91.1964
ARG_OF_PERICENTER = 73.5463
MEAN_ANOMALY   = 286.5911

EPHEMERIS_TYPE = 0
CLASSIFICATION_TYPE = U
NORAD_CAT_ID   = 67672
ELEMENT_SET_NO = 999
REV_AT_EPOCH   = 382
BSTAR          = .21741204E-2
MEAN_MOTION_DOT = .338058E-2
MEAN_MOTION_DDOT = 0

