STARLINK-36674          
1 67661U 26022P   26057.52982539  .00324785  00000+0  20846-2 0  9991
2 67661  97.2845  90.9797 0001722  33.0354 327.1018 15.75323241  3798
STARLINK-36700          
1 67662U 26022Q   26057.52769571  .00355625  00000+0  22728-2 0  9999
2 67662  97.2846  90.9822 0002425 285.1355  74.9642 15.75336516  3790
STARLINK-36675          
1 67663U 26022R   26057.52908583  .00430094  00000+0  27148-2 0  9993
2 67663  97.2846  90.9805 0001365 289.4144  70.6974 15.75417799  3791
STARLINK-36404          
1 67664U 26022S   26057.65299338  .00398164  00000+0  25453-2 0  9997
2 67664  97.2851  91.1172 0000694  70.2916 289.8424 15.75211553  3812
STARLINK-36399          
1 67665U 26022T   26057.52522605  .00401430  00000+0  25504-2 0  9998
2 67665  97.2853  90.9851 0001411 281.2205  78.8901 15.75346583  3794
STARLINK-36365          
1 67666U 26022U   26057.52382482  .00185212  00000+0  12139-2 0  9993
2 67666  97.2852  90.9881 0001720  79.4598 280.6861 15.75226508  3794
STARLINK-36622          
1 67667U 26022V   26057.83969691  .00256023  00000+0  16536-2 0  9995
2 67667  97.2860  91.3228 0001248 109.1667 250.9733 15.75368245  3846
STARLINK-36625          
1 67668U 26022W   26057.52065009  .00320882  00000+0  20609-2 0  9993
2 67668  97.2842  90.9903 0002020  22.6451 337.4903 15.75318301  3793
STARLINK-36639          
1 67669U 26022X   26057.51888705  .00484678  00000+0  30451-2 0  9999
2 67669  97.2851  90.9940 0001621  51.7018 308.4393 15.75375135  3792
STARLINK-36596          
1 67670U 26022Y   26057.70770405  .00256413  00000+0  16581-2 0  9991
2 67670  97.2863  91.1954 0001350  43.0351 317.1019 15.75340273  3829
STARLINK-36297          
1 67671U 26022Z   26057.07031051  .00206440  00000+0  13531-2 0  9996
2 67671  97.2860  90.5319 0001437  73.1183 287.0240 15.75167512  3721
STARLINK-36616          
1 67672U 26022AA  26057.70699413  .00338058  00000+0  21741-2 0  9992
2 67672  97.2859  91.1964 0000996  73.5463 286.5911 15.75239406  3829
